[{"OBJECT_NAME":"STARLINK-31730","OBJECT_ID":"2024-074X","EPOCH":"2026-03-09T02:59:21.351552","MEAN_MOTION":15.27556672,"ECCENTRICITY":0.00011459,"INCLINATION":43.003,"RA_OF_ASC_NODE":347.0799,"ARG_OF_PERICENTER":251.2892,"MEAN_ANOMALY":108.7835,"EPHEMERIS_TYPE":0,"CLASSIFICATION_TYPE":"U","NORAD_CAT_ID":59555,"ELEMENT_SET_NO":999,"REV_AT_EPOCH":10592,"BSTAR":-8.0472376e-5,"MEAN_MOTION_DOT":-2.474e-5,"MEAN_MOTION_DDOT":0},{"OBJECT_NAME":"TRANSPORTER-14 OBJECT AC","OBJECT_ID":"2025-135AC","EPOCH":"2026-03-09T19:42:26.378496","MEAN_MOTION":15.26845403,"ECCENTRICITY":0.00010083,"INCLINATION":97.4518,"RA_OF_ASC_NODE":185.7428,"ARG_OF_PERICENTER":268.0523,"MEAN_ANOMALY":92.06,"EPHEMERIS_TYPE":0,"CLASSIFICATION_TYPE":"U","NORAD_CAT_ID":64554,"ELEMENT_SET_NO":999,"REV_AT_EPOCH":3982,"BSTAR":0.0009323368,"MEAN_MOTION_DOT":0.00024574,"MEAN_MOTION_DDOT":0}]
